IRIDIUM 171             
1 43929U 19002H   24228.82539275  .00000076  00000+0  19951-4 0  9999
2 43929  86.3938 273.9390 0001989  95.4771 264.6652 14.34217397292879
IRIDIUM 170             
1 43930U 19002J   24228.73171315  .00002656  00000+0  41710-3 0  9991
2 43930  86.6063 273.7876 0002331  95.6892 264.4591 14.72273565300611
IRIDIUM 167             
1 43931U 19002K   24228.53997035  .00000733  00000+0  25455-3 0  9997
2 43931  86.3931 273.8429 0002136  93.1983 266.9457 14.34229940292833
IRIDIUM 181             
1 56726U 23068S   24229.20450235  .00001534  00000+0  44704-3 0  9999
2 56726  86.8676 330.2255 0002158  90.6635 269.4814 14.43602955 65794
IRIDIUM 174             
1 56728U 23068U   24229.18232700  .00004227  00000+0  55256-3 0  9999
2 56728  86.1963 286.9841 0002215  87.3078 272.8397 14.80242397 67252
IRIDIUM 179             
1 56730U 23068W   24228.56302617  .00004707  00000+0  61488-3 0  9995
2 56730  86.6811 312.4467 0002297  95.2723 264.8761 14.80302621 67169
